[{"OBJECT_NAME":"ONEWEB-0206","OBJECT_ID":"2021-031T","EPOCH":"2025-12-25T22:37:42.030048","MEAN_MOTION":13.14503198,"ECCENTRICITY":0.0001988,"INCLINATION":87.9014,"RA_OF_ASC_NODE":324.203,"ARG_OF_PERICENTER":77.6726,"MEAN_ANOMALY":282.4626,"EPHEMERIS_TYPE":0,"CLASSIFICATION_TYPE":"U","NORAD_CAT_ID":48227,"ELEMENT_SET_NO":999,"REV_AT_EPOCH":22546,"BSTAR":-0.00054612,"MEAN_MOTION_DOT":-1.9e-6,"MEAN_MOTION_DDOT":0},{"OBJECT_NAME":"ONEWEB-0182","OBJECT_ID":"2021-031U","EPOCH":"2025-12-25T20:41:13.673184","MEAN_MOTION":13.14501533,"ECCENTRICITY":0.00018758,"INCLINATION":87.8994,"RA_OF_ASC_NODE":324.245,"ARG_OF_PERICENTER":89.5268,"MEAN_ANOMALY":270.6077,"EPHEMERIS_TYPE":0,"CLASSIFICATION_TYPE":"U","NORAD_CAT_ID":48228,"ELEMENT_SET_NO":999,"REV_AT_EPOCH":22566,"BSTAR":-0.00067302572,"MEAN_MOTION_DOT":-2.37e-6,"MEAN_MOTION_DDOT":0},{"OBJECT_NAME":"ONEWEB-0186","OBJECT_ID":"2021-031V","EPOCH":"2025-12-25T22:46:49.209024","MEAN_MOTION":13.1450099,"ECCENTRICITY":0.000168,"INCLINATION":87.9006,"RA_OF_ASC_NODE":324.2066,"ARG_OF_PERICENTER":83.4019,"MEAN_ANOMALY":276.7302,"EPHEMERIS_TYPE":0,"CLASSIFICATION_TYPE":"U","NORAD_CAT_ID":48229,"ELEMENT_SET_NO":999,"REV_AT_EPOCH":22562,"BSTAR":-0.00013829,"MEAN_MOTION_DOT":-3.8e-7,"MEAN_MOTION_DDOT":0},{"OBJECT_NAME":"ONEWEB-0181","OBJECT_ID":"2021-031W","EPOCH":"2025-12-25T22:14:50.824896","MEAN_MOTION":13.14501314,"ECCENTRICITY":0.0001609,"INCLINATION":87.8994,"RA_OF_ASC_NODE":324.2634,"ARG_OF_PERICENTER":81.0728,"MEAN_ANOMALY":279.0584,"EPHEMERIS_TYPE":0,"CLASSIFICATION_TYPE":"U","NORAD_CAT_ID":48230,"ELEMENT_SET_NO":999,"REV_AT_EPOCH":22547,"BSTAR":-0.00044532,"MEAN_MOTION_DOT":-1.52e-6,"MEAN_MOTION_DDOT":0},{"OBJECT_NAME":"ONEWEB-0188","OBJECT_ID":"2021-031X","EPOCH":"2025-12-25T23:09:39.486240","MEAN_MOTION":13.14501159,"ECCENTRICITY":0.0001758,"INCLINATION":87.8996,"RA_OF_ASC_NODE":324.2524,"ARG_OF_PERICENTER":84.2549,"MEAN_ANOMALY":275.8781,"EPHEMERIS_TYPE":0,"CLASSIFICATION_TYPE":"U","NORAD_CAT_ID":48231,"ELEMENT_SET_NO":999,"REV_AT_EPOCH":22538,"BSTAR":8.372e-5,"MEAN_MOTION_DOT":4.4e-7,"MEAN_MOTION_DDOT":0},{"OBJECT_NAME":"ONEWEB-0220","OBJECT_ID":"2021-031Y","EPOCH":"2025-12-25T22:17:07.605600","MEAN_MOTION":13.14501455,"ECCENTRICITY":0.000161,"INCLINATION":87.901,"RA_OF_ASC_NODE":324.2099,"ARG_OF_PERICENTER":88.1707,"MEAN_ANOMALY":271.9607,"EPHEMERIS_TYPE":0,"CLASSIFICATION_TYPE":"U","NORAD_CAT_ID":48232,"ELEMENT_SET_NO":999,"REV_AT_EPOCH":22564,"BSTAR":-0.000554,"MEAN_MOTION_DOT":-1.93e-6,"MEAN_MOTION_DDOT":0},{"OBJECT_NAME":"ONEWEB-0165","OBJECT_ID":"2021-031Z","EPOCH":"2025-12-25T21:08:38.211648","MEAN_MOTION":13.14501587,"ECCENTRICITY":0.0001537,"INCLINATION":87.8993,"RA_OF_ASC_NODE":324.2437,"ARG_OF_PERICENTER":75.1315,"MEAN_ANOMALY":284.9985,"EPHEMERIS_TYPE":0,"CLASSIFICATION_TYPE":"U","NORAD_CAT_ID":48233,"ELEMENT_SET_NO":999,"REV_AT_EPOCH":22559,"BSTAR":9.2873e-5,"MEAN_MOTION_DOT":4.7e-7,"MEAN_MOTION_DDOT":0},{"OBJECT_NAME":"ONEWEB-0199","OBJECT_ID":"2021-031AA","EPOCH":"2025-12-25T22:35:24.493344","MEAN_MOTION":13.14501133,"ECCENTRICITY":0.0001945,"INCLINATION":87.9003,"RA_OF_ASC_NODE":324.208,"ARG_OF_PERICENTER":81.8554,"MEAN_ANOMALY":278.2797,"EPHEMERIS_TYPE":0,"CLASSIFICATION_TYPE":"U","NORAD_CAT_ID":48234,"ELEMENT_SET_NO":999,"REV_AT_EPOCH":22550,"BSTAR":-0.00069126,"MEAN_MOTION_DOT":-2.43e-6,"MEAN_MOTION_DDOT":0},{"OBJECT_NAME":"ONEWEB-0203","OBJECT_ID":"2021-031AB","EPOCH":"2025-12-25T22:21:41.956704","MEAN_MOTION":13.14501075,"ECCENTRICITY":0.0001774,"INCLINATION":87.9001,"RA_OF_ASC_NODE":324.2103,"ARG_OF_PERICENTER":74.0262,"MEAN_ANOMALY":286.1063,"EPHEMERIS_TYPE":0,"CLASSIFICATION_TYPE":"U","NORAD_CAT_ID":48235,"ELEMENT_SET_NO":999,"REV_AT_EPOCH":22551,"BSTAR":-0.00069967,"MEAN_MOTION_DOT":-2.47e-6,"MEAN_MOTION_DDOT":0},{"OBJECT_NAME":"ONEWEB-0197","OBJECT_ID":"2021-031AC","EPOCH":"2025-12-25T14:26:31.380576","MEAN_MOTION":13.145012,"ECCENTRICITY":0.0001902,"INCLINATION":87.9005,"RA_OF_ASC_NODE":324.2747,"ARG_OF_PERICENTER":91.9061,"MEAN_ANOMALY":268.2286,"EPHEMERIS_TYPE":0,"CLASSIFICATION_TYPE":"U","NORAD_CAT_ID":48236,"ELEMENT_SET_NO":999,"REV_AT_EPOCH":22538,"BSTAR":0.0005917,"MEAN_MOTION_DOT":2.32e-6,"MEAN_MOTION_DDOT":0},{"OBJECT_NAME":"ONEWEB-0194","OBJECT_ID":"2021-031AD","EPOCH":"2025-12-25T23:05:04.767072","MEAN_MOTION":13.14500936,"ECCENTRICITY":0.000197,"INCLINATION":87.9006,"RA_OF_ASC_NODE":324.2201,"ARG_OF_PERICENTER":77.8809,"MEAN_ANOMALY":282.2541,"EPHEMERIS_TYPE":0,"CLASSIFICATION_TYPE":"U","NORAD_CAT_ID":48237,"ELEMENT_SET_NO":999,"REV_AT_EPOCH":22560,"BSTAR":0.00055281,"MEAN_MOTION_DOT":2.18e-6,"MEAN_MOTION_DDOT":0},{"OBJECT_NAME":"ONEWEB-0193","OBJECT_ID":"2021-031AE","EPOCH":"2025-12-26T04:56:45.088224","MEAN_MOTION":13.14500949,"ECCENTRICITY":0.00021754,"INCLINATION":87.9003,"RA_OF_ASC_NODE":324.166,"ARG_OF_PERICENTER":75.8857,"MEAN_ANOMALY":284.2514,"EPHEMERIS_TYPE":0,"CLASSIFICATION_TYPE":"U","NORAD_CAT_ID":48238,"ELEMENT_SET_NO":999,"REV_AT_EPOCH":22558,"BSTAR":0.00071734886,"MEAN_MOTION_DOT":2.79e-6,"MEAN_MOTION_DDOT":0},{"OBJECT_NAME":"ONEWEB-0191","OBJECT_ID":"2021-031AF","EPOCH":"2025-12-25T21:54:19.205856","MEAN_MOTION":13.14503057,"ECCENTRICITY":0.0001877,"INCLINATION":87.9014,"RA_OF_ASC_NODE":324.215,"ARG_OF_PERICENTER":82.417,"MEAN_ANOMALY":277.7173,"EPHEMERIS_TYPE":0,"CLASSIFICATION_TYPE":"U","NORAD_CAT_ID":48239,"ELEMENT_SET_NO":999,"REV_AT_EPOCH":22540,"BSTAR":0.00031864,"MEAN_MOTION_DOT":1.31e-6,"MEAN_MOTION_DDOT":0},{"OBJECT_NAME":"ONEWEB-0195","OBJECT_ID":"2021-031AG","EPOCH":"2025-12-25T23:10:48.656352","MEAN_MOTION":13.14502479,"ECCENTRICITY":0.0001401,"INCLINATION":87.9017,"RA_OF_ASC_NODE":324.2018,"ARG_OF_PERICENTER":76.0914,"MEAN_ANOMALY":284.0372,"EPHEMERIS_TYPE":0,"CLASSIFICATION_TYPE":"U","NORAD_CAT_ID":48240,"ELEMENT_SET_NO":999,"REV_AT_EPOCH":22539,"BSTAR":0.00044766,"MEAN_MOTION_DOT":1.79e-6,"MEAN_MOTION_DDOT":0},{"OBJECT_NAME":"ONEWEB-0201","OBJECT_ID":"2021-031AH","EPOCH":"2025-12-25T22:53:53.801088","MEAN_MOTION":13.1450318,"ECCENTRICITY":0.0001615,"INCLINATION":87.8995,"RA_OF_ASC_NODE":324.2408,"ARG_OF_PERICENTER":91.5914,"MEAN_ANOMALY":268.54,"EPHEMERIS_TYPE":0,"CLASSIFICATION_TYPE":"U","NORAD_CAT_ID":48241,"ELEMENT_SET_NO":999,"REV_AT_EPOCH":22562,"BSTAR":-0.0001509,"MEAN_MOTION_DOT":-4.3e-7,"MEAN_MOTION_DDOT":0},{"OBJECT_NAME":"ONEWEB-0207","OBJECT_ID":"2021-031AJ","EPOCH":"2025-12-25T20:35:31.466112","MEAN_MOTION":13.14503396,"ECCENTRICITY":0.0001739,"INCLINATION":87.9011,"RA_OF_ASC_NODE":324.2252,"ARG_OF_PERICENTER":90.5186,"MEAN_ANOMALY":269.6143,"EPHEMERIS_TYPE":0,"CLASSIFICATION_TYPE":"U","NORAD_CAT_ID":48242,"ELEMENT_SET_NO":999,"REV_AT_EPOCH":22552,"BSTAR":-0.00040235,"MEAN_MOTION_DOT":-1.36e-6,"MEAN_MOTION_DDOT":0},{"OBJECT_NAME":"ONEWEB-0208","OBJECT_ID":"2021-031AK","EPOCH":"2025-12-25T21:58:52.629024","MEAN_MOTION":13.14502054,"ECCENTRICITY":0.0001559,"INCLINATION":87.9012,"RA_OF_ASC_NODE":324.2264,"ARG_OF_PERICENTER":75.443,"MEAN_ANOMALY":284.6872,"EPHEMERIS_TYPE":0,"CLASSIFICATION_TYPE":"U","NORAD_CAT_ID":48243,"ELEMENT_SET_NO":999,"REV_AT_EPOCH":22554,"BSTAR":0.00013859,"MEAN_MOTION_DOT":6.4e-7,"MEAN_MOTION_DDOT":0},{"OBJECT_NAME":"ONEWEB-0200","OBJECT_ID":"2021-031AL","EPOCH":"2025-12-25T21:06:21.609792","MEAN_MOTION":13.14502532,"ECCENTRICITY":0.0001672,"INCLINATION":87.9001,"RA_OF_ASC_NODE":324.2233,"ARG_OF_PERICENTER":82.7952,"MEAN_ANOMALY":277.3368,"EPHEMERIS_TYPE":0,"CLASSIFICATION_TYPE":"U","NORAD_CAT_ID":48244,"ELEMENT_SET_NO":999,"REV_AT_EPOCH":22546,"BSTAR":-6.2351e-5,"MEAN_MOTION_DOT":-1.0e-7,"MEAN_MOTION_DDOT":0},{"OBJECT_NAME":"ONEWEB-0217","OBJECT_ID":"2021-031AM","EPOCH":"2025-12-25T21:29:10.324896","MEAN_MOTION":13.14501639,"ECCENTRICITY":0.0001523,"INCLINATION":87.9013,"RA_OF_ASC_NODE":324.216,"ARG_OF_PERICENTER":76.6933,"MEAN_ANOMALY":283.4366,"EPHEMERIS_TYPE":0,"CLASSIFICATION_TYPE":"U","NORAD_CAT_ID":48245,"ELEMENT_SET_NO":999,"REV_AT_EPOCH":22541,"BSTAR":0.00077226,"MEAN_MOTION_DOT":2.99e-6,"MEAN_MOTION_DDOT":0},{"OBJECT_NAME":"ONEWEB-0211","OBJECT_ID":"2021-045A","EPOCH":"2025-12-26T05:48:31.361760","MEAN_MOTION":13.16138179,"ECCENTRICITY":0.00015935,"INCLINATION":87.9013,"RA_OF_ASC_NODE":293.6282,"ARG_OF_PERICENTER":61.5792,"MEAN_ANOMALY":298.5499,"EPHEMERIS_TYPE":0,"CLASSIFICATION_TYPE":"U","NORAD_CAT_ID":48767,"ELEMENT_SET_NO":999,"REV_AT_EPOCH":22169,"BSTAR":0.00023733913,"MEAN_MOTION_DOT":1.03e-6,"MEAN_MOTION_DDOT":0},{"OBJECT_NAME":"ONEWEB-0223","OBJECT_ID":"2021-045B","EPOCH":"2025-12-26T05:44:03.471648","MEAN_MOTION":13.15532514,"ECCENTRICITY":0.00019169,"INCLINATION":87.904,"RA_OF_ASC_NODE":293.6994,"ARG_OF_PERICENTER":64.6476,"MEAN_ANOMALY":295.4852,"EPHEMERIS_TYPE":0,"CLASSIFICATION_TYPE":"U","NORAD_CAT_ID":48768,"ELEMENT_SET_NO":999,"REV_AT_EPOCH":22166,"BSTAR":-0.0050468111,"MEAN_MOTION_DOT":-1.886e-5,"MEAN_MOTION_DDOT":0},{"OBJECT_NAME":"ONEWEB-0230","OBJECT_ID":"2021-045C","EPOCH":"2025-12-26T05:02:56.382720","MEAN_MOTION":13.1554663,"ECCENTRICITY":0.00018892,"INCLINATION":87.9005,"RA_OF_ASC_NODE":293.7304,"ARG_OF_PERICENTER":80.58,"MEAN_ANOMALY":279.5543,"EPHEMERIS_TYPE":0,"CLASSIFICATION_TYPE":"U","NORAD_CAT_ID":48769,"ELEMENT_SET_NO":999,"REV_AT_EPOCH":22192,"BSTAR":0.0003518455,"MEAN_MOTION_DOT":1.45e-6,"MEAN_MOTION_DDOT":0},{"OBJECT_NAME":"ONEWEB-0237","OBJECT_ID":"2021-045D","EPOCH":"2025-12-26T06:36:29.699136","MEAN_MOTION":13.15547745,"ECCENTRICITY":0.00019365,"INCLINATION":87.9009,"RA_OF_ASC_NODE":293.7177,"ARG_OF_PERICENTER":68.7518,"MEAN_ANOMALY":291.382,"EPHEMERIS_TYPE":0,"CLASSIFICATION_TYPE":"U","NORAD_CAT_ID":48770,"ELEMENT_SET_NO":999,"REV_AT_EPOCH":22165,"BSTAR":0.00059916642,"MEAN_MOTION_DOT":2.38e-6,"MEAN_MOTION_DDOT":0}]
